ASTROCAST-0402          
1 55109U 23001DE  26068.80661100  .00010930  00000+0  41835-3 0  9996
2 55109  97.5556 160.6821 0004209 216.6984 143.3966 15.26734153129364
STARLINK-31667          
1 59609U 24080J   26068.27062851  .00003890  00000+0  15089-3 0  9991
2 59609  42.9959  36.3757 0001098 245.9723 114.1014 15.27556774104512
